FLOCK 1C-3              
1 40041U 14033AH  17196.53765490  .00000667  00000-0  77453-4 0  9992
2 40041  97.9263 109.0395 0012178 194.0547 166.0332 14.88671041166704
POLYITAN-1              
1 40042U 14033AJ  17196.56242280  .00000345  00000-0  43652-4 0  9990
2 40042  97.9183 107.6046 0014226 194.8452 165.2349 14.88071725166131
TIGRISAT                
1 40043U 14033AK  17196.61922040  .00000137  00000-0  28052-4 0  9992
2 40043  97.8537  80.3105 0059572 201.5502 158.3199 14.73987811164727
LEMUR-1                 
1 40044U 14033AL  17196.60378906  .00000149  00000-0  29870-4 0  9990
2 40044  97.8536  80.0327 0058687 202.7384 157.1223 14.73811735164600
AEROCUBE 6A             
1 40045U 14033AM  17196.56367741  .00000333  00000-0  55978-4 0  9994
2 40045  97.8656  81.4818 0057507 197.0895 162.8379 14.74839236164902
AEROCUBE 6B             
1 40046U 14033AN  17196.22450916  .00000315  00000-0  53426-4 0  9991
2 40046  97.8651  81.0842 0056727 197.7927 162.1297 14.74838760164999
UKUBE-1                 
1 40074U 14037F   17196.48636415  .00000245  00000-0  36905-4 0  9999
2 40074  98.3513 312.6802 0003959 335.8323  24.2702 14.83516266163370
BRITE-PL 2              
1 40119U 14049B   17196.46373669  .00000119  00000-0  20751-4 0  9991
2 40119  97.9361 282.2161 0017487   2.1272 358.0013 14.84148593157263
FIREBIRD 4              
1 40378U 15003C   17196.52620532  .00001766  00000-0  79039-4 0  9992
2 40378  99.1232  26.1772 0135089 268.4125  90.1625 15.15462791135305
GRIFEX                  
1 40379U 15003D   17196.49050261  .00001295  00000-0  62649-4 0  9991
2 40379  99.1253  23.7944 0140963 276.5093  82.0101 15.13004363135162
EXOCUBE                 
1 40380U 15003E   17196.50378833  .00000846  00000-0  44142-4 0  9992
2 40380  99.1292  22.4965 0144616 280.6647  77.8321 15.11516358135072
DEORBITSAIL             
1 40719U 15032E   17196.59290520  .00000436  00000-0  70465-4 0  9997
2 40719  97.9774  89.9916 0017927  54.4154 305.8723 14.76080259108512
TIANWANG 1C (TW-1C)     
1 40926U 15051B   17196.47879247  .00006172  00000-0  14143-3 0  9997
2 40926  97.2272 235.8223 0013490  69.7760  37.7070 15.43029880101285
TIANWANG 1B (TW-1B)     
1 40927U 15051C   17196.37812958  .00006001  00000-0  14276-3 0  9991
2 40927  97.2364 235.7282 0013496  79.4576  47.5380 15.41916847101213
TIANWANG 1A (TW-1A)     
1 40928U 15051D   17196.62403027  .00003000  00000-0  86856-4 0  9993
2 40928  97.2246 231.9287 0014614  94.7575  25.3995 15.36265349101065
LEMUR-2-JOEL            
1 40932U 15052C   17196.43694070  .00001294  00000-0  88594-4 0  9992
2 40932   6.0075  26.1008 0014722 296.9168  63.0123 14.77483875 97197
LEMUR-2-CHRIS           
1 40933U 15052D   17196.43650191  .00001374  00000-0  99033-4 0  9998
2 40933   6.0074  24.9395 0015248 299.9717  59.9590 14.77626186 97207
LEMUR-2-JEROEN          
1 40934U 15052E   17196.28576925  .00000590  00000-0 -69958-5 0  9998
2 40934   6.0096  31.3979 0012066 282.4837  77.4340 14.76971610 97108
LEMUR-2-PETER           
1 40935U 15052F   17196.37674736  .00000972  00000-0  46291-4 0  9995
2 40935   6.0038  32.2723 0011482 282.5172  77.3580 14.76739205 97114
EXACTVIEW 9             
1 40936U 15052G   17195.10366149 -.00003122  00000-0 -52991-3 0  9997
2 40936   6.0006  43.8195 0012170 254.0175 106.0397 14.76222819 96925
ATHENOXAT 1             
1 41168U 15077C   17196.48754397  .00001839  00000-0  66402-4 0  9994
2 41168  14.9891 322.6808 0012615  47.4463 271.0472 15.11639097 87321
GALASSIA                
1 41170U 15077E   17196.60413450  .00001898  00000-0  68504-4 0  9993
2 41170  14.9895 318.0378 0013480  67.8288 292.3462 15.12137950 87384
VELOX 2                 
1 41171U 15077F   17196.48956935  .00001566  00000-0  54280-4 0  9998
2 41171  14.9923 331.5772 0009202  22.1387 337.9330 15.09906148 87251
AGGIESAT 4              
1 41313U 98067HP  17196.45447700  .00017555  00000-0  11931-3 0  9998
2 41313  51.6360 217.4628 0002079 271.7143  88.3618 15.75034298 83388
HORYU-IV                
1 41340U 16012D   17196.59056025  .00000533  00000-0  34435-4 0  9992
2 41340  31.0056 288.2676 0014353 355.6671   4.3839 15.00619639 77288
OUFTI-1                 
1 41458U 16025C   17196.60164155  .00001302  00000-0  73393-4 0  9993
2 41458  98.1785 235.8043 0175303 194.4646 165.1531 15.03222797 66855
E-ST@R-II               
1 41459U 16025D   17196.62549617  .00000599  00000-0  36660-4 0  9999
2 41459  98.1857 235.7828 0174658 194.2516 165.3746 15.03076679 66847
AAUSAT 4                
1 41460U 16025E   17196.47302201  .00001010  00000-0  58513-4 0  9990
2 41460  98.1740 235.7362 0167007 193.1385 166.5467 15.03971129 66842
DIWATA-1                
1 41463U 98067HT  17196.49261299  .00005205  00000-0  62746-4 0  9995
2 41463  51.6409 242.4332 0000057  37.6448  63.7623 15.62670715 69225
NODES 2                 
1 41477U 98067HX  17196.46175478  .00065001  00000-0  25875-3 0  9991
2 41477  51.6251 215.8014 0002279  15.8527 344.2547 15.86014826 66556
NODES 1                 
1 41478U 98067HY  17196.45194035  .00059524  00000-0  24592-3 0  9999
2 41478  51.6285 216.5283 0002317  17.3867 342.7216 15.85279340 66545
FLOCK 2E'-1             
1 41479U 98067HZ  17196.48267175  .00013894  00000-0  11786-3 0  9990
2 41479  51.6337 231.9471 0002142   1.2048 358.8954 15.69980769 66300
FLOCK 2E'-3             
1 41480U 98067JA  17196.38216065  .00012425  00000-0  10666-3 0  9998
2 41480  51.6338 232.0465 0001673  34.0200 326.0905 15.69812859 66284
FLOCK 2E'-2             
1 41481U 98067JB  17196.50983045  .00016330  00000-0  13407-3 0  9997
2 41481  51.6317 229.8502 0002101 356.2588   3.8393 15.70617078 66316
FLOCK 2E'-4             
1 41482U 98067JC  17196.50305761  .00028011  00000-0  20488-3 0  9997
2 41482  51.6314 228.2833 0001378  41.8177 318.2927 15.72982583 66336
FLOCK 2E-1              
1 41483U 98067JD  17196.35820818  .00009782  00000-0  88690-4 0  9990
2 41483  51.6352 233.4315 0001413 100.9772 259.1384 15.68770997 66126
FLOCK 2E-2              
1 41484U 98067JE  17196.31847152  .00011392  00000-0  96017-4 0  9999
2 41484  51.6363 231.6834 0000822  97.8931 262.2160 15.70362383 66147
FLOCK 2E-3              
1 41486U 98067JG  17196.50623563  .00020597  00000-0  18120-3 0  9995
2 41486  51.6347 234.4113 0000706  99.1483 260.9594 15.68744037 66143
FLOCK 2E-4              
1 41487U 98067JH  17196.47646094  .00009773  00000-0  88214-4 0  9991
2 41487  51.6351 232.6867 0001662 178.5078 181.5924 15.68883160 66167
FLOCK 2E-6              
1 41563U 98067JM  17196.49785112  .00009574  00000-0  92169-4 0  9996
2 41563  51.6345 235.0799 0001967 355.7943   4.3036 15.67308232 64204
FLOCK 2E-5              
1 41564U 98067JN  17196.51026375  .00009573  00000-0  92526-4 0  9995
2 41564  51.6346 235.1710 0001854   2.1260 357.9744 15.67209111 64197
FLOCK 2E-7              
1 41565U 98067JP  17196.45442520  .00013248  00000-0  11005-3 0  9999
2 41565  51.6339 231.0065 0002170 243.4006 116.6770 15.70540278 64148
FLOCK 2E-8              
1 41566U 98067JQ  17196.39475681  .00287588  50856-4  32119-3 0  9994
2 41566  51.6193 204.6195 0007917  42.4492 317.7132 16.08827214 64479
FLOCK 2E'-5             
1 41567U 98067JR  17196.51920693  .00008795  00000-0  88473-4 0  9995
2 41567  51.6359 236.7492 0003046 254.8586 105.2073 15.66328292 64044
FLOCK 2E'-6             
1 41568U 98067JS  17196.46398334  .00010302  00000-0  95192-4 0  9994
2 41568  51.6341 234.0828 0002545 261.5278  98.5430 15.68230226 64105
FLOCK 2E'-8             
1 41569U 98067JT  17196.48286797  .00013763  00000-0  11285-3 0  9990
2 41569  51.6334 230.4479 0000112  53.1415 306.9593 15.70813204 64030
FLOCK 2E'-7             
1 41570U 98067JU  17196.31391906  .00017059  00000-0  12215-3 0  9999
2 41570  51.6333 227.8212 0000718  95.0548 265.0532 15.73839835 64073
FLOCK 2E-9              
1 41571U 98067JV  17196.46768945  .00013522  00000-0  10705-3 0  9990
2 41571  51.6342 229.6117 0001409 260.1765  99.9074 15.71679770 64020
FLOCK 2E-10             
1 41572U 98067JW  17196.46879184  .00012856  00000-0  10988-3 0  9991
2 41572  51.6344 231.8798 0002382 246.9998 113.0749 15.69879674 63998
FLOCK 2E-12             
1 41573U 98067JX  17196.45421455  .00014368  00000-0  11793-3 0  9990
2 41573  51.6335 231.0148 0002210 273.3109  86.7636 15.70746625 64003
FLOCK 2E-11             
1 41574U 98067JY  17196.44690396  .00014142  00000-0  11528-3 0  9998
2 41574  51.6324 230.1668 0003060 270.2566  89.8081 15.70928638 64011
FLOCK 2E'-9             
1 41575U 98067JZ  17196.48785134  .00015280  00000-0  11837-3 0  9995
2 41575  51.6322 228.9143 0003272 295.3575  64.7084 15.72074797 64022
FLOCK 2E'-10            
1 41576U 98067KA  17196.50613251  .00013685  00000-0  11199-3 0  9997
2 41576  51.6348 230.6391 0003094 289.1368  70.9294 15.70868552 63905
FLOCK 2E'-11            
1 41577U 98067KB  17196.48853929  .00013031  00000-0  10939-3 0  9999
2 41577  51.6347 231.2824 0002874 261.0306  99.0366 15.70303221 63717
FLOCK 2E'-12            
1 41578U 98067KC  17196.46499906  .00016154  00000-0  12652-3 0  9992
2 41578  51.6328 230.2944 0002397 254.3583 105.7151 15.71760861 63727
FLOCK 2P-6              
1 41606U 16040H   17196.36453328  .00002415  00000-0  10783-3 0  9990
2 41606  97.4571 258.8520 0010255 344.8539  15.2389 15.22299262 58990
FLOCK 2P-11             
1 41608U 16040K   17196.43591525  .00002031  00000-0  91199-4 0  9997
2 41608  97.4572 258.8915 0010305 344.8155  15.2770 15.22293646 58940
FLOCK 2P-2              
1 41609U 16040L   17196.45225580  .00001730  00000-0  78112-4 0  9990
2 41609  97.4576 258.8960 0010177 344.1214  15.9702 15.22295890 58924
FLOCK 2P-9              
1 41610U 16040M   17196.46306088  .00001268  00000-0  58096-4 0  9991
2 41610  97.4573 258.8677 0010449 344.3927  15.6985 15.22284602 58809
